start=new Date('2021-09-23T00:00:00.000Z').valueOf();
sats=[{"RCS_SIZE":"LARGE","APOAPSIS":"548.424","EPHEMERIS_TYPE":"0","MEAN_ANOMALY":"314.4036","PERIOD":"95.592","GP_ID":"185269215","ECCENTRICITY":"0.00017650","ELEMENT_SET_NO":"999","SEMIMAJOR_AXIS":"6925.337","DECAY_DATE":null,"MEAN_MOTION":"15.06403927","COUNTRY_CODE":"US","PERIAPSIS":"545.979","EPOCH":"2021-09-22T13:20:53.247840","CLASSIFICATION_TYPE":"U","BSTAR":"0.00010845000000","LAUNCH_DATE":"2021-04-29","RA_OF_ASC_NODE":"205.0721","FILE":"3123736","TLE_LINE2":"2 48307  53.0547 205.0721 0001765  45.7098 314.4036 15.06403927 22627","NORAD_CAT_ID":"48307","OBJECT_ID":"2021-036AH","OBJECT_TYPE":"PAYLOAD","MEAN_MOTION_DDOT":"0.0000000000000","TIME_SYSTEM":"UTC","MEAN_ELEMENT_THEORY":"SGP4","OBJECT_NAME":"STARLINK-2528","CENTER_NAME":"EARTH","REV_AT_EPOCH":"2262","MEAN_MOTION_DOT":"0.00001334","ARG_OF_PERICENTER":"45.7098","INCLINATION":"53.0547","TLE_LINE1":"1 48307U 21036AH  21265.55617185  .00001334  00000-0  10845-3 0  9990","REF_FRAME":"TEME","SITE":"AFETR"},{"INCLINATION":"53.0556","ARG_OF_PERICENTER":"56.1350","SITE":"AFETR","REF_FRAME":"TEME","TLE_LINE1":"1 48308U 21036AJ  21265.55250246 -.00000366  00000-0 -56743-5 0  9997","OBJECT_NAME":"STARLINK-2532","MEAN_ELEMENT_THEORY":"SGP4","REV_AT_EPOCH":"2262","MEAN_MOTION_DOT":"-0.00000366","CENTER_NAME":"EARTH","OBJECT_TYPE":"PAYLOAD","TIME_SYSTEM":"UTC","MEAN_MOTION_DDOT":"0.0000000000000","TLE_LINE2":"2 48308  53.0556 205.0929 0001822  56.1350 303.9812 15.06391537 22627","NORAD_CAT_ID":"48308","OBJECT_ID":"2021-036AJ","RA_OF_ASC_NODE":"205.0929","FILE":"3123736","EPOCH":"2021-09-22T13:15:36.212544","PERIAPSIS":"545.978","DECAY_DATE":null,"MEAN_MOTION":"15.06391537","COUNTRY_CODE":"US","LAUNCH_DATE":"2021-04-29","BSTAR":"-0.00000567430000","CLASSIFICATION_TYPE":"U","ELEMENT_SET_NO":"999","ECCENTRICITY":"0.00018220","GP_ID":"185269443","SEMIMAJOR_AXIS":"6925.374","RCS_SIZE":"LARGE","APOAPSIS":"548.501","PERIOD":"95.593","MEAN_ANOMALY":"303.9812","EPHEMERIS_TYPE":"0"},{"PERIOD":"95.593","EPHEMERIS_TYPE":"0","MEAN_ANOMALY":"302.4393","RCS_SIZE":"LARGE","APOAPSIS":"548.489","SEMIMAJOR_AXIS":"6925.408","ELEMENT_SET_NO":"999","ECCENTRICITY":"0.00017560","GP_ID":"185267715","LAUNCH_DATE":"2021-04-29","CLASSIFICATION_TYPE":"U","BSTAR":"-0.00010273000000","PERIAPSIS":"546.057","EPOCH":"2021-09-22T13:10:19.632576","DECAY_DATE":null,"MEAN_MOTION":"15.06380575","COUNTRY_CODE":"US","FILE":"3123736","RA_OF_ASC_NODE":"205.1190","OBJECT_ID":"2021-036AK","TLE_LINE2":"2 48309  53.0568 205.1190 0001756  57.6766 302.4393 15.06380575 22623","NORAD_CAT_ID":"48309","TIME_SYSTEM":"UTC","MEAN_MOTION_DDOT":"0.0000000000000","OBJECT_TYPE":"PAYLOAD","CENTER_NAME":"EARTH","REV_AT_EPOCH":"2262","MEAN_MOTION_DOT":"-0.00001811","MEAN_ELEMENT_THEORY":"SGP4","OBJECT_NAME":"STARLINK-2517","TLE_LINE1":"1 48309U 21036AK  21265.54883834 -.00001811  00000-0 -10273-3 0  9994","REF_FRAME":"TEME","SITE":"AFETR","ARG_OF_PERICENTER":"57.6766","INCLINATION":"53.0568"},{"TLE_LINE1":"1 48310U 21036AL  21265.54510934  .00001115  00000-0  93779-4 0  9992","REF_FRAME":"TEME","SITE":"AFETR","ARG_OF_PERICENTER":"54.7088","INCLINATION":"53.0547","CENTER_NAME":"EARTH","MEAN_MOTION_DOT":"0.00001115","REV_AT_EPOCH":"2262","MEAN_ELEMENT_THEORY":"SGP4","OBJECT_NAME":"STARLINK-2536","MEAN_MOTION_DDOT":"0.0000000000000","TIME_SYSTEM":"UTC","OBJECT_TYPE":"PAYLOAD","OBJECT_ID":"2021-036AL","TLE_LINE2":"2 48310  53.0547 205.1206 0001916  54.7088 305.4080 15.06401716 22620","NORAD_CAT_ID":"48310","FILE":"3123736","RA_OF_ASC_NODE":"205.1206","CLASSIFICATION_TYPE":"U","BSTAR":"0.00009377900000","LAUNCH_DATE":"2021-04-29","DECAY_DATE":null,"COUNTRY_CODE":"US","MEAN_MOTION":"15.06401716","PERIAPSIS":"545.881","EPOCH":"2021-09-22T13:04:57.446976","SEMIMAJOR_AXIS":"6925.343","GP_ID":"185268965","ECCENTRICITY":"0.00019160","ELEMENT_SET_NO":"999","EPHEMERIS_TYPE":"0","MEAN_ANOMALY":"305.4080","PERIOD":"95.592","RCS_SIZE":"LARGE","APOAPSIS":"548.535"},{"SEMIMAJOR_AXIS":"6925.360","ELEMENT_SET_NO":"999","GP_ID":"185268716","ECCENTRICITY":"0.00017210","PERIOD":"95.592","EPHEMERIS_TYPE":"0","MEAN_ANOMALY":"304.1660","RCS_SIZE":"LARGE","APOAPSIS":"548.417","FILE":"3123736","RA_OF_ASC_NODE":"205.1448","LAUNCH_DATE":"2021-04-29","CLASSIFICATION_TYPE":"U","BSTAR":"0.00012635000000","PERIAPSIS":"546.034","EPOCH":"2021-09-22T12:59:40.176672","DECAY_DATE":null,"MEAN_MOTION":"15.06396113","COUNTRY_CODE":"US","TIME_SYSTEM":"UTC","MEAN_MOTION_DDOT":"0.0000000000000","OBJECT_TYPE":"PAYLOAD","OBJECT_ID":"2021-036AM","NORAD_CAT_ID":"48311","TLE_LINE2":"2 48311  53.0555 205.1448 0001721  55.9492 304.1660 15.06396113 22628","TLE_LINE1":"1 48311U 21036AM  21265.54143723  .00001601  00000-0  12635-3 0  9992","REF_FRAME":"TEME","SITE":"AFETR","ARG_OF_PERICENTER":"55.9492","INCLINATION":"53.0555","CENTER_NAME":"EARTH","REV_AT_EPOCH":"2262","MEAN_MOTION_DOT":"0.00001601","MEAN_ELEMENT_THEORY":"SGP4","OBJECT_NAME":"STARLINK-2534"},{"REV_AT_EPOCH":"2326","MEAN_MOTION_DOT":"0.00001600","CENTER_NAME":"EARTH","OBJECT_NAME":"STARLINK-2061","MEAN_ELEMENT_THEORY":"SGP4","REF_FRAME":"TEME","SITE":"AFETR","TLE_LINE1":"1 48312U 21036AN  21265.53773976  .00001600  00000-0  12624-3 0  9998","INCLINATION":"53.0562","ARG_OF_PERICENTER":"54.3100","OBJECT_ID":"2021-036AN","TLE_LINE2":"2 48312  53.0562 205.1662 0001667  54.3100 305.8044 15.06406048 23267","NORAD_CAT_ID":"48312","MEAN_MOTION_DDOT":"0.0000000000000","TIME_SYSTEM":"UTC","OBJECT_TYPE":"PAYLOAD","BSTAR":"0.00012624000000","CLASSIFICATION_TYPE":"U","LAUNCH_DATE":"2021-04-29","MEAN_MOTION":"15.06406048","DECAY_DATE":null,"COUNTRY_CODE":"US","EPOCH":"2021-09-22T12:54:20.715264","PERIAPSIS":"546.041","RA_OF_ASC_NODE":"205.1662","FILE":"3123538","MEAN_ANOMALY":"305.8044","EPHEMERIS_TYPE":"0","PERIOD":"95.592","APOAPSIS":"548.349","RCS_SIZE":"LARGE","SEMIMAJOR_AXIS":"6925.330","GP_ID":"185242409","ECCENTRICITY":"0.00016670","ELEMENT_SET_NO":"999"},{"DECAY_DATE":null,"MEAN_MOTION":"15.06394914","COUNTRY_CODE":"US","EPOCH":"2021-09-22T12:49:03.395712","PERIAPSIS":"545.985","BSTAR":"0.00011286000000","CLASSIFICATION_TYPE":"U","LAUNCH_DATE":"2021-04-29","RA_OF_ASC_NODE":"205.1911","FILE":"3123417","APOAPSIS":"548.473","RCS_SIZE":"LARGE","MEAN_ANOMALY":"307.6709","EPHEMERIS_TYPE":"0","PERIOD":"95.592","ECCENTRICITY":"0.00017960","GP_ID":"185239521","ELEMENT_SET_NO":"999","SEMIMAJOR_AXIS":"6925.364","OBJECT_NAME":"STARLINK-2541","MEAN_ELEMENT_THEORY":"SGP4","MEAN_MOTION_DOT":"0.00001400","REV_AT_EPOCH":"2261","CENTER_NAME":"EARTH","INCLINATION":"53.0571","ARG_OF_PERICENTER":"52.4443","REF_FRAME":"TEME","SITE":"AFETR","TLE_LINE1":"1 48313U 21036AP  21265.53406708  .00001400  00000-0  11286-3 0  9996","NORAD_CAT_ID":"48313","TLE_LINE2":"2 48313  53.0571 205.1911 0001796  52.4443 307.6709 15.06394914 22611","OBJECT_ID":"2021-036AP","OBJECT_TYPE":"PAYLOAD","MEAN_MOTION_DDOT":"0.0000000000000","TIME_SYSTEM":"UTC"},{"MEAN_MOTION_DOT":"-0.00000137","REV_AT_EPOCH":"2261","CENTER_NAME":"EARTH","OBJECT_NAME":"STARLINK-2549","MEAN_ELEMENT_THEORY":"SGP4","REF_FRAME":"TEME","SITE":"AFETR","TLE_LINE1":"1 48314U 21036AQ  21265.53038416 -.00000137  00000-0  96835-5 0  9996","INCLINATION":"53.0567","ARG_OF_PERICENTER":"48.4865","OBJECT_ID":"2021-036AQ","TLE_LINE2":"2 48314  53.0567 205.2061 0001603  48.4865 311.6261 15.06396537 22615","NORAD_CAT_ID":"48314","MEAN_MOTION_DDOT":"0.0000000000000","TIME_SYSTEM":"UTC","OBJECT_TYPE":"PAYLOAD","BSTAR":"0.00000968350000","CLASSIFICATION_TYPE":"U","LAUNCH_DATE":"2021-04-29","MEAN_MOTION":"15.06396537","DECAY_DATE":null,"COUNTRY_CODE":"US","EPOCH":"2021-09-22T12:43:45.191424","PERIAPSIS":"546.114","FILE":"3123417","RA_OF_ASC_NODE":"205.2061","MEAN_ANOMALY":"311.6261","EPHEMERIS_TYPE":"0","PERIOD":"95.592","RCS_SIZE":"LARGE","APOAPSIS":"548.334","SEMIMAJOR_AXIS":"6925.359","GP_ID":"185239772","ECCENTRICITY":"0.00016030","ELEMENT_SET_NO":"999"},{"OBJECT_ID":"2021-036AR","TLE_LINE2":"2 48315  53.0552 205.2176 0001522  63.0169 297.0975 15.06399682 23262","NORAD_CAT_ID":"48315","TIME_SYSTEM":"UTC","MEAN_MOTION_DDOT":"0.0000000000000","OBJECT_TYPE":"PAYLOAD","MEAN_MOTION_DOT":"0.00001878","REV_AT_EPOCH":"2326","CENTER_NAME":"EARTH","OBJECT_NAME":"STARLINK-2506","MEAN_ELEMENT_THEORY":"SGP4","SITE":"AFETR","REF_FRAME":"TEME","TLE_LINE1":"1 48315U 21036AR  21265.52668410  .00001878  00000-0  14495-3 0  9991","INCLINATION":"53.0552","ARG_OF_PERICENTER":"63.0169","PERIOD":"95.592","MEAN_ANOMALY":"297.0975","EPHEMERIS_TYPE":"0","APOAPSIS":"548.269","RCS_SIZE":"LARGE","SEMIMAJOR_AXIS":"6925.350","ELEMENT_SET_NO":"999","ECCENTRICITY":"0.00015220","GP_ID":"185242828","LAUNCH_DATE":"2021-04-29","BSTAR":"0.00014495000000","CLASSIFICATION_TYPE":"U","EPOCH":"2021-09-22T12:38:25.506240","PERIAPSIS":"546.160","MEAN_MOTION":"15.06399682","DECAY_DATE":null,"COUNTRY_CODE":"US","FILE":"3123552","RA_OF_ASC_NODE":"205.2176"},{"FILE":"3123417","RA_OF_ASC_NODE":"206.4240","COUNTRY_CODE":"US","DECAY_DATE":null,"MEAN_MOTION":"15.06390770","EPOCH":"2021-09-22T06:10:58.841472","PERIAPSIS":"546.112","BSTAR":"0.00003488700000","CLASSIFICATION_TYPE":"U","LAUNCH_DATE":"2021-04-29","ECCENTRICITY":"0.00016310","GP_ID":"185238770","ELEMENT_SET_NO":"999","SEMIMAJOR_AXIS":"6925.377","APOAPSIS":"548.371","RCS_SIZE":"LARGE","MEAN_ANOMALY":"304.1337","EPHEMERIS_TYPE":"0","PERIOD":"95.593","INCLINATION":"53.0576","ARG_OF_PERICENTER":"55.9807","SITE":"AFETR","REF_FRAME":"TEME","TLE_LINE1":"1 48316U 21036AS  21265.25762548  .00000238  00000-0  34887-4 0  9996","OBJECT_NAME":"STARLINK-2507","MEAN_ELEMENT_THEORY":"SGP4","REV_AT_EPOCH":"2257","MEAN_MOTION_DOT":"0.00000238","CENTER_NAME":"EARTH","OBJECT_TYPE":"PAYLOAD","MEAN_MOTION_DDOT":"0.0000000000000","TIME_SYSTEM":"UTC","TLE_LINE2":"2 48316  53.0576 206.4240 0001631  55.9807 304.1337 15.06390770 22578","NORAD_CAT_ID":"48316","OBJECT_ID":"2021-036AS"}];
